{
  "norad_id": 57512,
  "name": "STARLINK-30157",
  "history": [
    {
      "epoch": "2026-03-28T16:47:30.738912Z",
      "apogee_km": 484.4091111631287,
      "perigee_km": 481.649687260694,
      "latitude_deg": -3.948249715583195e-05,
      "longitude_deg": 164.9212255707802,
      "height_km": 482.72277993796564,
      "semi_major_axis_km": 6861.166399211911,
      "eccentricity": 0.00020109,
      "inclination_deg": 43.0,
      "raan_deg": 242.9157,
      "arg_perigee_deg": 273.4827,
      "mean_anomaly_deg": 86.5794,
      "mean_motion_rev_day": 15.27586578
    }
  ]
}