{"fetched_at":"2026-03-29T16:36:15Z","count":15609,"tles":[{"name":"STARLINK-30157","line1":"1 57512U 23113T   26087.69966133  .00003817  00000+0  14812-3 0  9993","line2":"2 57512  43.0000 242.9157 0002010 273.4827  86.5794 15.27586578146885","category":"Starlink"}]}